{
  "type": "FeatureCollection",
  "features": [
    {
      "type": "Feature",
      "properties": {
        "norad_id": 60182,
        "name": "ALOS-4 (DAICHI-4)",
        "group": "resource",
        "lat": 59.42043436395897,
        "lon": 73.79016094297997,
        "alt_km": 624.5106966951644,
        "timestamp": "2025-12-18T15:47:10.878339+00:00",
        "meta_object_name": "ALOS-4 (DAICHI-4)",
        "meta_object_id": "2024-123A",
        "meta_epoch": "2025-12-18T05:46:31.245024",
        "meta_mean_motion": 14.7946977,
        "meta_eccentricity": 0.0001383,
        "meta_inclination": 97.9224,
        "meta_ra_of_asc_node": 87.0094,
        "meta_arg_of_pericenter": 102.2976,
        "meta_mean_anomaly": 257.839,
        "meta_ephemeris_type": 0,
        "meta_classification_type": "U",
        "meta_norad_cat_id": 60182,
        "meta_element_set_no": 999,
        "meta_rev_at_epoch": 7912,
        "meta_bstar": 0.00024738109,
        "meta_mean_motion_dot": 1.796e-05,
        "meta_mean_motion_ddot": 0,
        "tle_line1": "1 60182U 24123A   25352.24063941  .00001796  00000+0  24738-3 0  9994",
        "tle_line2": "2 60182  97.9224  87.0094 0001383 102.2976 257.8390 14.79469770 79129"
      },
      "geometry": {
        "type": "Point",
        "coordinates": [
          73.79016094297997,
          59.42043436395897
        ]
      }
    },
    {
      "type": "Feature",
      "properties": {
        "norad_id": 60452,
        "name": "LEGION 3",
        "group": "resource",
        "lat": -12.833742149189746,
        "lon": 111.58116348353222,
        "alt_km": 510.9728846159296,
        "timestamp": "2025-12-18T15:47:10.878349+00:00",
        "meta_object_name": "LEGION 3",
        "meta_object_id": "2024-146A",
        "meta_epoch": "2025-12-18T05:25:29.668512",
        "meta_mean_motion": 15.15819718,
        "meta_eccentricity": 0.00154933,
        "meta_inclination": 45.0024,
        "meta_ra_of_asc_node": 280.7203,
        "meta_arg_of_pericenter": 228.329,
        "meta_mean_anomaly": 131.6262,
        "meta_ephemeris_type": 0,
        "meta_classification_type": "U",
        "meta_norad_cat_id": 60452,
        "meta_element_set_no": 999,
        "meta_rev_at_epoch": 7456,
        "meta_bstar": 0.00022715365,
        "meta_mean_motion_dot": 4.162e-05,
        "meta_mean_motion_ddot": 0,
        "tle_line1": "1 60452U 24146A   25352.22603783  .00004162  00000+0  22715-3 0  9994",
        "tle_line2": "2 60452  45.0024 280.7203 0015493 228.3290 131.6262 15.15819718 74563"
      },
      "geometry": {
        "type": "Point",
        "coordinates": [
          111.58116348353222,
          -12.833742149189746
        ]
      }
    },
    {
      "type": "Feature",
      "properties": {
        "norad_id": 60453,
        "name": "LEGION 4",
        "group": "resource",
        "lat": -11.534922863980903,
        "lon": -158.05842706345933,
        "alt_km": 524.7871016330428,
        "timestamp": "2025-12-18T15:47:10.878360+00:00",
        "meta_object_name": "LEGION 4",
        "meta_object_id": "2024-146B",
        "meta_epoch": "2025-12-18T05:26:03.196032",
        "meta_mean_motion": 15.1588166,
        "meta_eccentricity": 0.00089672,
        "meta_inclination": 45.0397,
        "meta_ra_of_asc_node": 12.4861,
        "meta_arg_of_pericenter": 339.8943,
        "meta_mean_anomaly": 20.1582,
        "meta_ephemeris_type": 0,
        "meta_classification_type": "U",
        "meta_norad_cat_id": 60453,
        "meta_element_set_no": 999,
        "meta_rev_at_epoch": 7341,
        "meta_bstar": 0.00021939273,
        "meta_mean_motion_dot": 4.011e-05,
        "meta_mean_motion_ddot": 0,
        "tle_line1": "1 60453U 24146B   25352.22642588  .00004011  00000+0  21939-3 0  9991",
        "tle_line2": "2 60453  45.0397  12.4861 0008967 339.8943  20.1582 15.15881660 73413"
      },
      "geometry": {
        "type": "Point",
        "coordinates": [
          -158.05842706345933,
          -11.534922863980903
        ]
      }
    },
    {
      "type": "Feature",
      "properties": {
        "norad_id": 60989,
        "name": "SENTINEL-2C",
        "group": "resource",
        "lat": -48.899485913432464,
        "lon": -124.89649705674744,
        "alt_km": 796.4363348660636,
        "timestamp": "2025-12-18T15:47:10.878373+00:00",
        "meta_object_name": "SENTINEL-2C",
        "meta_object_id": "2024-157A",
        "meta_epoch": "2025-12-18T04:38:48.740352",
        "meta_mean_motion": 14.30819708,
        "meta_eccentricity": 0.00012236,
        "meta_inclination": 98.5678,
        "meta_ra_of_asc_node": 64.5976,
        "meta_arg_of_pericenter": 96.5555,
        "meta_mean_anomaly": 263.5768,
        "meta_ephemeris_type": 0,
        "meta_classification_type": "U",
        "meta_norad_cat_id": 60989,
        "meta_element_set_no": 999,
        "meta_rev_at_epoch": 6710,
        "meta_bstar": 6.2374404e-05,
        "meta_mean_motion_dot": 1.2e-06,
        "meta_mean_motion_ddot": 0,
        "tle_line1": "1 60989U 24157A   25352.19361968  .00000120  00000+0  62374-4 0  9999",
        "tle_line2": "2 60989  98.5678  64.5976 0001223  96.5555 263.5768 14.30819708 67109"
      },
      "geometry": {
        "type": "Point",
        "coordinates": [
          -124.89649705674744,
          -48.899485913432464
        ]
      }
    },
    {
      "type": "Feature",
      "properties": {
        "norad_id": 61735,
        "name": "IONOSFERA-M 1",
        "group": "resource",
        "lat": -36.02865703314262,
        "lon": -131.1155589669497,
        "alt_km": 822.116803475059,
        "timestamp": "2025-12-18T15:47:10.878383+00:00",
        "meta_object_name": "IONOSFERA-M 1",
        "meta_object_id": "2024-199A",
        "meta_epoch": "2025-12-18T07:31:05.897280",
        "meta_mean_motion": 14.22715223,
        "meta_eccentricity": 6.916e-05,
        "meta_inclination": 98.7401,
        "meta_ra_of_asc_node": 222.1187,
        "meta_arg_of_pericenter": 13.0907,
        "meta_mean_anomaly": 347.0289,
        "meta_ephemeris_type": 0,
        "meta_classification_type": "U",
        "meta_norad_cat_id": 61735,
        "meta_element_set_no": 999,
        "meta_rev_at_epoch": 10198,
        "meta_bstar": 3.9839906e-05,
        "meta_mean_motion_dot": 4.5e-07,
        "meta_mean_motion_ddot": 0,
        "tle_line1": "1 61735U 24199A   25352.31326270  .00000045  00000+0  39840-4 0  9994",
        "tle_line2": "2 61735  98.7401 222.1187 0000691  13.0907 347.0289 14.22715223101983"
      },
      "geometry": {
        "type": "Point",
        "coordinates": [
          -131.1155589669497,
          -36.02865703314262
        ]
      }
    },
    {
      "type": "Feature",
      "properties": {
        "norad_id": 61736,
        "name": "IONOSFERA-M 2",
        "group": "resource",
        "lat": 33.15624789918869,
        "lon": 48.14100177448713,
        "alt_km": 813.1728690435202,
        "timestamp": "2025-12-18T15:47:10.878393+00:00",
        "meta_object_name": "IONOSFERA-M 2",
        "meta_object_id": "2024-199B",
        "meta_epoch": "2025-12-18T06:39:42.352128",
        "meta_mean_motion": 14.22717436,
        "meta_eccentricity": 0.00017657,
        "meta_inclination": 98.7406,
        "meta_ra_of_asc_node": 221.9956,
        "meta_arg_of_pericenter": 103.5459,
        "meta_mean_anomaly": 256.5916,
        "meta_ephemeris_type": 0,
        "meta_classification_type": "U",
        "meta_norad_cat_id": 61736,
        "meta_element_set_no": 999,
        "meta_rev_at_epoch": 10510,
        "meta_bstar": 4.5769374e-05,
        "meta_mean_motion_dot": 5.8e-07,
        "meta_mean_motion_ddot": 0,
        "tle_line1": "1 61736U 24199B   25352.27757352  .00000058  00000+0  45769-4 0  9990",
        "tle_line2": "2 61736  98.7406 221.9956 0001765 103.5459 256.5916 14.22717436105107"
      },
      "geometry": {
        "type": "Point",
        "coordinates": [
          48.14100177448713,
          33.15624789918869
        ]
      }
    },
    {
      "type": "Feature",
      "properties": {
        "norad_id": 63772,
        "name": "BIOMASS",
        "group": "resource",
        "lat": -31.57236866102606,
        "lon": -7.421069383805517,
        "alt_km": 675.5768075172309,
        "timestamp": "2025-12-18T15:47:10.878403+00:00",
        "meta_object_name": "BIOMASS",
        "meta_object_id": "2025-090A",
        "meta_epoch": "2025-12-18T06:38:32.251488",
        "meta_mean_motion": 14.67532145,
        "meta_eccentricity": 0.00011505,
        "meta_inclination": 98.07,
        "meta_ra_of_asc_node": 177.2057,
        "meta_arg_of_pericenter": 79.3908,
        "meta_mean_anomaly": 280.7426,
        "meta_ephemeris_type": 0,
        "meta_classification_type": "U",
        "meta_norad_cat_id": 63772,
        "meta_element_set_no": 999,
        "meta_rev_at_epoch": 3415,
        "meta_bstar": 0.00016362921,
        "meta_mean_motion_dot": 8.8e-06,
        "meta_mean_motion_ddot": 0,
        "tle_line1": "1 63772U 25090A   25352.27676217  .00000880  00000+0  16363-3 0  9993",
        "tle_line2": "2 63772  98.0700 177.2057 0001150  79.3908 280.7426 14.67532145 34153"
      },
      "geometry": {
        "type": "Point",
        "coordinates": [
          -7.421069383805517,
          -31.57236866102606
        ]
      }
    }
  ]
}